{"fetched_at":"2026-03-29T02:12:04Z","count":15717,"tles":[{"name":"ASIASAT 6","line1":"1 40141U 14052A   26086.57024553 -.00000381  00000+0  00000+0 0  9996","line2":"2 40141   0.0325 262.1957 0000968 121.7203 126.2328  1.00267765 42265","category":"Other"}]}